OBJECT_NAME,OBJECT_ID,EPOCH,MEAN_MOTION,ECCENTRICITY,INCLINATION,RA_OF_ASC_NODE,ARG_OF_PERICENTER,MEAN_ANOMALY,EPHEMERIS_TYPE,CLASSIFICATION_TYPE,NORAD_CAT_ID,ELEMENT_SET_NO,REV_AT_EPOCH,BSTAR,MEAN_MOTION_DOT,MEAN_MOTION_DDOT
PROBA-1,2001-049B,2026-07-17T17:38:12.316128,15.07620360,.0055531,97.9600,208.3365,21.3820,338.9709,0,U,26958,999,34822,.52549E-4,.755E-5,0
CUTE-1 (CO-55),2003-031E,2026-07-17T10:54:17.893728,14.24352364,.0010863,98.6744,206.6332,96.8604,263.3811,0,U,27844,999,19598,.74903E-4,.13E-5,0
CUBESAT XI-IV (CO-57),2003-031J,2026-07-17T10:59:35.247840,14.23635260,.0010618,98.6776,206.3252,113.4163,246.8133,0,U,27848,999,19568,.658E-4,.106E-5,0
APRIZESAT 4,2009-041D,2026-07-17T11:11:13.121376,14.83915547,.0042383,98.1403,274.3888,221.9877,137.8085,0,U,35684,999,91585,.4736E-4,.34E-5,0
APRIZESAT 3,2009-041F,2026-07-17T09:25:03.734112,14.96314161,.0060735,98.2104,353.0707,328.5965,31.1633,0,U,35686,999,92089,.49783E-4,.514E-5,0
PROBA-2,2009-059B,2026-07-17T12:02:20.157216,14.54874149,.0013173,98.2461,21.4357,181.5534,178.5625,0,U,36037,999,88593,.22895E-4,.53E-6,0
APRIZESAT 5,2011-044E,2026-07-17T17:54:11.852928,14.81129659,.0050682,98.2449,132.6541,264.2484,95.2948,0,U,37792,999,80331,.5088E-4,.344E-5,0
APRIZESAT 6,2011-044F,2026-07-17T13:51:08.179200,14.76958656,.0042864,98.2335,109.6946,350.6351,130.9243,0,U,37793,999,80163,.53815E-4,.328E-5,0
PROBA-V,2013-021A,2026-07-17T09:52:59.517408,14.23603581,.0005171,98.3607,175.5295,54.7902,305.3761,0,U,39159,999,68541,.19662E-4,.4E-7,0
APRIZESAT 7,2013-066A,2026-07-17T14:38:32.018784,14.91622016,.0037292,97.7723,151.3962,109.6247,250.9002,0,U,39416,999,68576,.70616E-4,.661E-5,0
APRIZESAT 8,2013-066K,2026-07-17T08:11:33.033120,14.87698086,.0045681,97.8230,145.3916,184.7762,175.3025,0,U,39425,999,68415,.44567E-4,.356E-5,0
BUGSAT-1 (TITA),2014-033E,2026-07-17T17:36:00.453312,15.15898471,.0028912,98.0434,293.0756,77.4709,282.9754,0,U,40014,999,66046,.18071E-3,.342E-4,0
SAUDISAT 4,2014-033G,2026-07-17T08:22:18.640704,14.79576785,.004407,97.7621,343.4471,336.9897,22.9340,0,U,40016,999,65053,.35798E-4,.22E-5,0
APRIZESAT 9,2014-033J,2026-07-17T08:14:24.599328,14.74254170,.0067487,97.9097,330.8108,103.1795,257.6955,0,U,40018,999,64800,.50835E-4,.296E-5,0
APRIZESAT 10,2014-033K,2026-07-17T14:28:01.521696,14.70912482,.0078927,97.9685,324.8896,175.6715,184.5192,0,U,40019,999,64672,.5181E-4,.28E-5,0
TECHDEMOSAT-1 (TDS-1),2014-037H,2026-07-17T10:30:46.579968,15.13697375,.0007131,98.3829,193.6612,151.6707,208.4911,0,U,40076,999,65280,.19784E-3,.3484E-4,0
TECHNOSAT,2017-042E,2026-07-17T08:48:26.112096,15.05118204,.0017222,97.4321,354.8846,356.4574,3.6528,0,U,42829,999,49124,.10531E-3,.1444E-4,0
FLYING LAPTOP,2017-042G,2026-07-17T17:06:22.578912,15.01323225,.0019601,97.4819,353.0993,24.4623,335.7527,0,U,42831,999,49103,.16558E-3,.2081E-4,0
HAWK-A,2018-099H,2026-07-17T01:49:01.280064,15.24979113,.00349345,97.3893,249.9255,177.4083,182.7343,0,U,43765,999,41765,.15257672E-3,.3796E-4,0
HAWK-B,2018-099AN,2026-07-17T14:13:58.332864,15.23130659,.0031628,97.3942,249.7872,193.5822,166.4567,0,U,43794,999,41766,.12492E-3,.2916E-4,0
HAWK-C,2018-099AT,2026-07-17T16:53:55.060800,15.28513795,.0040561,97.3869,251.6101,174.9667,185.1989,0,U,43799,999,41857,.16085E-3,.4494E-4,0
SALSAT,2020-068K,2026-07-16T23:14:24.421344,15.30186484,.0009384,97.8858,202.8562,186.4299,173.6821,0,U,46495,999,31991,.13663E-3,.3909E-4,0
HAWK-2C,2021-006CT,2026-07-17T15:55:51.666816,15.35006871,.0008685,97.2260,242.3701,93.8853,266.3384,0,U,47502,999,30417,.10268E-3,.3412E-4,0
HAWK-2A,2021-006CW,2026-07-17T15:59:00.817152,15.35029058,.0008216,97.2301,243.0676,97.1620,263.0558,0,U,47505,999,30417,.11967E-3,.3992E-4,0
HAWK-2B,2021-006CZ,2026-07-17T12:41:40.075584,15.35155089,.0008769,97.2173,241.2174,95.9169,264.3074,0,U,47508,999,30415,.11384E-3,.381E-4,0
HAWK-3B,2021-059BE,2026-07-17T01:46:02.801856,15.71981880,.0004664,97.6630,37.6634,191.2793,168.8366,0,U,48931,999,28254,.21904E-3,.28474E-3,0
HAWK-3C,2021-059BX,2026-07-17T01:45:35.330112,15.71985132,.0004992,97.6747,43.3996,191.7605,168.3541,0,U,48948,999,28254,.21401E-3,.2782E-3,0
HAWK-3A,2021-059CG,2026-07-17T01:45:25.617024,15.71983553,.0004843,97.6690,40.5803,193.9667,166.1462,0,U,48957,999,28254,.21178E-3,.27525E-3,0
HAWK-5C,2022-057Y,2026-07-17T08:22:46.449408,15.52373230,.0002589,97.6624,359.9892,336.8816,23.2319,0,U,52754,999,23102,.17449E-3,.10534E-3,0
HAWK-5B,2022-057AA,2026-07-17T09:55:20.264736,15.52371017,.0003281,97.6636,358.4117,321.9348,38.1672,0,U,52756,999,23103,.17271E-3,.10426E-3,0
HAWK-5A,2022-057AB,2026-07-16T23:05:17.753856,15.52363268,.0003196,97.6630,358.7605,330.0631,30.0438,0,U,52757,999,23096,.1721E-3,.10385E-3,0
